NORAD_CAT_ID,OBJECT_NAME,OBJECT_TYPE,EPOCH,MEAN_MOTION,ECCENTRICITY,INCLINATION,RA_OF_ASC_NODE,ARG_OF_PERICENTER,MEAN_ANOMALY,BSTAR,MEAN_MOTION_DOT,MEAN_MOTION_DDOT,TLE_LINE0,TLE_LINE1,TLE_LINE2,SEMIMAJOR_AXIS,PERIOD,APOGEE,PERIGEE,DECAYED
54100.0,STARLINK-5185,PAYLOAD,2022-10-25 18:00:00,15.90255084,0.0030280999999999,53.2173,122.838,55.9317,292.9903,-0.00414,-0.01338234,0.00051095,0 STARLINK-5185,1 54100U 22136BB  22298.75001157 -.01338234  51095-3 -41400-2 0  9993,2 54100  53.2173 122.8380 0030281  55.9317 292.9903 15.90255084  1308,6679.705,90.552,321.797,281.344,0.0
54100.0,STARLINK-5185,PAYLOAD,2022-10-25 22:00:01,15.89823114,0.0029056999999999,53.2174,121.9935,56.9294,166.6351,-0.0042758,-0.01347021,0.00051497,0 STARLINK-5185,1 54100U 22136BB  22298.91668981 -.01347021  51497-3 -42758-2 0  9992,2 54100  53.2174 121.9935 0029057  56.9294 166.6351 15.89823114  1306,6680.915,90.576,322.193,283.368,0.0
54100.0,STARLINK-5185,PAYLOAD,2022-10-26 06:00:00,15.88952849,0.0025749,53.2175,120.3023,56.788,275.0814,-0.0044819,-0.01339556,0.00050564,0 STARLINK-5185,1 54100U 22136BB  22299.25001157 -.01339556  50564-3 -44819-2 0  9994,2 54100  53.2175 120.3023 0025749  56.7880 275.0814 15.88952849  1374,6683.355,90.626,322.4290000000001,288.011,0.0
54100.0,STARLINK-5185,PAYLOAD,2022-10-26 14:00:01,15.88065121,0.0021936,53.2174,118.6146,56.0601,23.1432,-0.0045714,-0.01296484,0.0004724999999999,0 STARLINK-5185,1 54100U 22136BB  22299.58334491 -.01296484  47250-3 -45714-2 0  9995,2 54100  53.2174 118.6146 0021936  56.0601  23.1432 15.88065121  1430,6685.845,90.676,322.376,293.0440000000001,0.0
54100.0,STARLINK-5185,PAYLOAD,2022-10-26 22:00:00,15.87218685,0.0018510999999999,53.2176,116.9315,54.1962,131.2826,-0.0049653,-0.0134147,0.00049891,0 STARLINK-5185,1 54100U 22136BB  22299.91667824 -.01341470  49891-3 -49653-2 0  9996,2 54100  53.2176 116.9315 0018511  54.1962 131.2826 15.87218685  1303,6688.222,90.725,322.467,297.706,0.0
54100.0,STARLINK-5185,PAYLOAD,2022-10-27 14:00:01,15.85457047,0.0012378,53.2171,113.5656,52.9268,342.0692,-0.0052638,-0.01145668,0.0,0 STARLINK-5185,1 54100U 22136BB  22300.58335648 -.01145668  00000-0 -52638-2 0  9992,2 54100  53.2171 113.5656 0012378  52.9268 342.0692 15.85457047  1307,6693.175,90.826,323.325,306.755,0.0
54100.0,STARLINK-5185,PAYLOAD,2022-10-27 22:00:00,15.84590108,0.0009052999999999,53.2174,111.8892,48.0676,90.0144,-0.005499,-0.01142474,0.0,0 STARLINK-5185,1 54100U 22136BB  22300.91667824 -.01142474  00000-0 -54990-2 0  9998,2 54100  53.2174 111.8892 0009053  48.0676  90.0144 15.84590108  1305,6695.616,90.875,323.543,311.42,0.0
54100.0,STARLINK-5185,PAYLOAD,2022-10-28 08:00:01,15.83529141,0.0005015,53.2174,109.7913,30.709,324.9085,-0.0060135,-0.01199665,0.0,0 STARLINK-5185,1 54100U 22136BB  22301.33335648 -.01199665  00000-0 -60135-2 0  9993,2 54100  53.2174 109.7913 0005015  30.7090 324.9085 15.83529141  1713,6698.607,90.936,323.831,317.112,0.0
54100.0,STARLINK-5185,PAYLOAD,2022-10-28 14:00:01,15.82884266,0.0003717,53.2174,108.5363,13.6306,327.6881,-0.0062585,-0.01208405,0.0,0 STARLINK-5185,1 54100U 22136BB  22301.58335648 -.01208405  00000-0 -62585-2 0  9994,2 54100  53.2174 108.5363 0003717  13.6306 327.6881 15.82884266  1306,6700.426,90.973,324.781,319.8,0.0
54100.0,STARLINK-5185,PAYLOAD,2022-10-28 22:00:01,15.81991895,0.000344,53.2173,106.8658,315.8928,125.4589,-0.0062749,-0.01166209,0.0,0 STARLINK-5185,1 54100U 22136BB  22301.91668981 -.01166209  00000-0 -62749-2 0  9997,2 54100  53.2173 106.8658 0003440 315.8928 125.4589 15.81991895  1308,6702.945,91.024,327.116,322.504,0.0
54100.0,STARLINK-5185,PAYLOAD,2022-10-29 12:00:00,15.8060756,0.0006389,53.2171,103.9426,273.4344,250.3196,-0.0078205,-0.01340796,0.0,0 STARLINK-5185,1 54100U 22136BB  22302.50001157 -.01340796  00000-0 -78205-2 0  9998,2 54100  53.2171 103.9426 0006389 273.4344 250.3196 15.80607560  1307,6706.858,91.104,333.0080000000001,324.438,0.0
54100.0,STARLINK-5185,PAYLOAD,2022-10-29 22:00:01,15.79395294,0.0006117,53.2173,101.8621,271.1032,104.0656,-0.0071617999999999,-0.01180145,0.0,0 STARLINK-5185,1 54100U 22136BB  22302.91668981 -.01180145  00000-0 -71618-2 0  9998,2 54100  53.2173 101.8621 0006117 271.1032 104.0656 15.79395294  1303,6710.29,91.174,336.26,328.05,0.0
54100.0,STARLINK-5185,PAYLOAD,2022-10-30 00:00:00,15.79207209,0.0005283,53.2172,101.4453,271.3474,217.8064,-0.0075451,-0.01225971,0.0,0 STARLINK-5185,1 54100U 22136BB  22303.00001157 -.01225971  00000-0 -75451-2 0  9991,2 54100  53.2172 101.4453 0005283 271.3474 217.8064 15.79207209  1973,6710.823,91.185,336.233,329.142,0.0
54100.0,STARLINK-5185,PAYLOAD,2022-10-30 14:00:01,15.77683553,0.0002628999999999,53.2174,98.5354,282.9125,282.8448,-0.0079959,-0.01211747,0.0,0 STARLINK-5185,1 54100U 22136BB  22303.58334491 -.01211747  00000-0 -79959-2 0  9997,2 54100  53.2174  98.5354 0002629 282.9125 282.8448 15.77683553  1306,6715.143,91.273,338.773,335.242,0.0
54100.0,STARLINK-5185,PAYLOAD,2022-10-30 22:00:01,15.76805337,2.03e-05,53.2172,96.8776,333.9575,325.6365,-0.0081902,-0.01193955,0.0,0 STARLINK-5185,1 54100U 22136BB  22303.91668981 -.01193955  00000-0 -81902-2 0  9999,2 54100  53.2172  96.8776 0000203 333.9575 325.6365 15.76805337  1304,6717.636,91.324,339.63699999999994,339.3640000000001,0.0
54100.0,STARLINK-5185,PAYLOAD,2022-10-31 14:00:01,15.75074205,0.0001195,53.2173,93.5637,59.1285,64.8048,-0.0089136,-0.01202638,0.0,0 STARLINK-5185,1 54100U 22136BB  22304.58334491 -.01202638  00000-0 -89136-2 0  9995,2 54100  53.2173  93.5637 0001195  59.1285  64.8048 15.75074205  1302,6722.557,91.424,345.225,343.619,0.0
54100.0,STARLINK-5185,PAYLOAD,2022-10-31 22:00:01,15.74078826,0.0001147,53.2172,91.912,69.2315,145.4299,-0.0066308999999999,-0.00872512,0.0,0 STARLINK-5185,1 54100U 22136BB  22304.91668981 -.00872512  00000-0 -66309-2 0  9996,2 54100  53.2172  91.9120 0001147  69.2315 145.4299 15.74078826  2276,6725.391,91.482,348.027,346.4840000000001,0.0
54100.0,STARLINK-5185,PAYLOAD,2022-11-01 06:00:00,15.73312207,0.0001155,53.2175,90.2592,67.892,236.314,-0.0012243,-0.00169829,0.0,0 STARLINK-5185,1 54100U 22136BB  22305.25001157 -.00169829  00000-0 -12243-2 0  9998,2 54100  53.2175  90.2592 0001155  67.8920 236.3140 15.73312207  2323,6727.575,91.527,350.217,348.663,0.0
54100.0,STARLINK-5185,PAYLOAD,2022-11-01 14:00:01,15.73298772,0.0001235,53.2164,88.6142,48.9141,344.2655,-0.00077647,-0.00108652,0.0,0 STARLINK-5185,1 54100U 22136BB  22305.58334491 -.00108652  00000-0 -77647-3 0  9991,2 54100  53.2164  88.6142 0001235  48.9141 344.2655 15.73298772  2383,6727.614000000001,91.527,350.309,348.648,0.0
54100.0,STARLINK-5185,PAYLOAD,2022-11-01 22:00:00,15.73190273,0.0001371,53.2159,86.9654,42.3374,79.8392,0.00046668,0.00065359,0.0,0 STARLINK-5185,1 54100U 22136BB  22305.91667824  .00065359  00000-0  46668-3 0  9990,2 54100  53.2159  86.9654 0001371  42.3374  79.8392 15.73190273  1300,6727.9230000000025,91.534,350.71,348.866,0.0
54100.0,STARLINK-5185,PAYLOAD,2022-11-02 06:00:00,15.73231699,0.0001227,53.2161,85.3137,48.7345,162.3921,-0.00041315,-0.0005828,0.0,0 STARLINK-5185,1 54100U 22136BB  22306.25001157 -.00058280  00000-0 -41315-3 0  9990,2 54100  53.2161  85.3137 0001227  48.7345 162.3921 15.73231699  2484,6727.805,91.531,350.495,348.844,0.0
54100.0,STARLINK-5185,PAYLOAD,2022-11-02 14:00:01,15.73154977,0.0001527,53.2169,83.6648,47.7136,252.3669,0.00027616,0.00038239,0.0,0 STARLINK-5185,1 54100U 22136BB  22306.58334491  .00038239  00000-0  27616-3 0  9994,2 54100  53.2169  83.6648 0001527  47.7136 252.3669 15.73154977  1302,6728.024,91.536,350.916,348.861,0.0
54100.0,STARLINK-5185,PAYLOAD,2022-11-02 22:00:00,15.73178851,0.0001691,53.2161,82.0166,40.7457,348.1895,0.00064359,0.00090602,0.0,0 STARLINK-5185,1 54100U 22136BB  22306.91667824  .00090602  00000-0  64359-3 0  9997,2 54100  53.2161  82.0166 0001691  40.7457 348.1895 15.73178851  2597,6727.955,91.534,350.958,348.68300000000005,0.0
54100.0,STARLINK-5185,PAYLOAD,2022-11-03 14:00:01,15.732873199999998,0.0001534,53.216,78.7169,33.9577,172.9211,-0.00052996,-0.00074619,0.0,0 STARLINK-5185,1 54100U 22136BB  22307.58334491 -.00074619  00000-0 -52996-3 0  9998,2 54100  53.2160  78.7169 0001534  33.9577 172.9211 15.73287320  2692,6727.646,91.528,350.543,348.47900000000016,0.0
54100.0,STARLINK-5185,PAYLOAD,2022-11-03 22:00:00,15.73260023,0.0001710999999999,53.2156,77.0675,29.9528,265.936,-8.5684e-05,-0.0001266,0.0,0 STARLINK-5185,1 54100U 22136BB  22307.91667824 -.00012660  00000-0 -85684-4 0  9993,2 54100  53.2156  77.0675 0001711  29.9528 265.9360 15.73260023  2744,6727.724,91.53,350.74,348.43800000000016,0.0
54100.0,STARLINK-5185,PAYLOAD,2022-11-04 14:00:01,15.73213039,0.0001808,53.2161,73.7678,32.171,81.6946,8.5071e-05,0.00011341,0.0,0 STARLINK-5185,1 54100U 22136BB  22308.58334491  .00011341  00000-0  85071-4 0  9991,2 54100  53.2161  73.7678 0001808  32.1710  81.6946 15.73213039  1301,6727.858,91.532,350.939,348.50699999999995,0.0
54100.0,STARLINK-5185,PAYLOAD,2022-11-04 22:00:01,15.73210658,0.0001947,53.216,72.1185,31.72,171.0704,-0.00047045,-0.00066164,0.0,0 STARLINK-5185,1 54100U 22136BB  22308.91668981 -.00066164  00000-0 -47045-3 0  9995,2 54100  53.2160  72.1185 0001947  31.7200 171.0704 15.73210658  2906,6727.865,91.533,351.04,348.42,0.0
54100.0,STARLINK-5185,PAYLOAD,2022-11-05 14:00:01,15.73117094,0.0001992,53.2161,68.8196,29.664,350.8792,0.00038742,0.0005391,0.0,0 STARLINK-5185,1 54100U 22136BB  22309.58335648  .00053910  00000-0  38742-3 0  9997,2 54100  53.2161  68.8196 0001992  29.6640 350.8792 15.73117094  1302,6728.132,91.538,351.337,348.656,0.0
54100.0,STARLINK-5185,PAYLOAD,2022-11-05 22:00:01,15.7320533,0.0002143,53.2158,67.1703,29.5716,79.8145,-0.00015826,-0.00022779,0.0,0 STARLINK-5185,1 54100U 22136BB  22309.91668981 -.00022779  00000-0 -15826-3 0  9992,2 54100  53.2158  67.1703 0002143  29.5716  79.8145 15.73205330  3062,6727.88,91.533,351.18699999999984,348.30300000000005,0.0
